[{"OBJECT_NAME":"QIANFAN-26","OBJECT_ID":"2024-185H","EPOCH":"2026-03-09T23:12:51.629472","MEAN_MOTION":13.77863596,"ECCENTRICITY":0.00078495,"INCLINATION":88.9749,"RA_OF_ASC_NODE":70.3172,"ARG_OF_PERICENTER":102.881,"MEAN_ANOMALY":257.3233,"EPHEMERIS_TYPE":0,"CLASSIFICATION_TYPE":"U","NORAD_CAT_ID":61559,"ELEMENT_SET_NO":999,"REV_AT_EPOCH":8068,"BSTAR":0.00026503001,"MEAN_MOTION_DOT":2.78e-6,"MEAN_MOTION_DDOT":0},{"OBJECT_NAME":"THOR ABLESTAR DEB","OBJECT_ID":"1961-015KA","EPOCH":"2026-03-05T20:20:48.860736","MEAN_MOTION":14.02157379,"ECCENTRICITY":0.01238111,"INCLINATION":67.119,"RA_OF_ASC_NODE":212.3404,"ARG_OF_PERICENTER":231.6842,"MEAN_ANOMALY":127.3063,"EPHEMERIS_TYPE":0,"CLASSIFICATION_TYPE":"U","NORAD_CAT_ID":5786,"ELEMENT_SET_NO":999,"REV_AT_EPOCH":26007,"BSTAR":0.00097681084,"MEAN_MOTION_DOT":1.523e-5,"MEAN_MOTION_DDOT":0}]
